IRIDIUM 144             
1 43249U 18030A   23313.56475677  .00000521  00000+0  17915-3 0  9996
2 43249  86.3953 327.7235 0002362  93.8333 266.3133 14.34211028293889
IRIDIUM 149             
1 43250U 18030B   23313.78040403  .00000325  00000+0  10883-3 0  9996
2 43250  86.3950 327.6105 0002404  95.8394 264.3076 14.34212062293938
IRIDIUM 157             
1 43251U 18030C   23313.59012986  .00000424  00000+0  14432-3 0  9995
2 43251  86.3952 327.7226 0002071  87.5712 272.5721 14.34219100293880
IRIDIUM 140             
1 43252U 18030D   23313.95799924  .00000452  00000+0  15445-3 0  9996
2 43252  86.3950 327.5805 0002518  86.1387 274.0096 14.34218301293995
IRIDIUM 145             
1 43253U 18030E   23313.94531060  .00000518  00000+0  17776-3 0  9993
2 43253  86.3948 327.5631 0002561  95.2662 264.8826 14.34210464293928
IRIDIUM 146             
1 43254U 18030F   23313.78674877  .00000429  00000+0  14621-3 0  9997
2 43254  86.3951 327.6448 0002507  92.6558 267.4924 14.34220997293914
IRIDIUM 148             
1 43255U 18030G   23313.75503669  .00000168  00000+0  52768-4 0  9990
2 43255  86.3950 327.6872 0002550  89.9113 270.2375 14.34211980293946
IRIDIUM 142             
1 43256U 18030H   23313.79308856  .00000531  00000+0  18264-3 0  9992
2 43256  86.3948 327.5943 0002497  89.4282 270.7200 14.34210945293913
